[{"OBJECT_NAME":"STARLINK-32842","OBJECT_ID":"2025-018S","EPOCH":"2025-07-28T11:50:59.729568","MEAN_MOTION":15.30203922,"ECCENTRICITY":0.0001296,"INCLINATION":53.1579,"RA_OF_ASC_NODE":270.9203,"ARG_OF_PERICENTER":69.0792,"MEAN_ANOMALY":291.0347,"EPHEMERIS_TYPE":0,"CLASSIFICATION_TYPE":"U","NORAD_CAT_ID":62822,"ELEMENT_SET_NO":999,"REV_AT_EPOCH":2885,"BSTAR":0.00049064,"MEAN_MOTION_DOT":0.00014202,"MEAN_MOTION_DDOT":0},{"OBJECT_NAME":"STARLINK-32823","OBJECT_ID":"2025-018T","EPOCH":"2025-07-28T20:50:59.961984","MEAN_MOTION":15.30205424,"ECCENTRICITY":0.0001346,"INCLINATION":53.156,"RA_OF_ASC_NODE":268.9921,"ARG_OF_PERICENTER":81.1397,"MEAN_ANOMALY":278.9756,"EPHEMERIS_TYPE":0,"CLASSIFICATION_TYPE":"U","NORAD_CAT_ID":62823,"ELEMENT_SET_NO":999,"REV_AT_EPOCH":2981,"BSTAR":0.00080315,"MEAN_MOTION_DOT":0.00023507,"MEAN_MOTION_DDOT":0},{"OBJECT_NAME":"STARLINK-32852","OBJECT_ID":"2025-018U","EPOCH":"2025-07-28T10:35:09.694752","MEAN_MOTION":15.30240243,"ECCENTRICITY":6.63e-5,"INCLINATION":53.1572,"RA_OF_ASC_NODE":271.3027,"ARG_OF_PERICENTER":98.6792,"MEAN_ANOMALY":261.4284,"EPHEMERIS_TYPE":0,"CLASSIFICATION_TYPE":"U","NORAD_CAT_ID":62824,"ELEMENT_SET_NO":999,"REV_AT_EPOCH":2884,"BSTAR":0.0012951,"MEAN_MOTION_DOT":0.00038243,"MEAN_MOTION_DDOT":0},{"OBJECT_NAME":"STARLINK-32825","OBJECT_ID":"2025-018V","EPOCH":"2025-07-28T09:22:59.338848","MEAN_MOTION":15.3020415,"ECCENTRICITY":8.37e-5,"INCLINATION":53.1557,"RA_OF_ASC_NODE":268.8549,"ARG_OF_PERICENTER":72.0549,"MEAN_ANOMALY":288.0543,"EPHEMERIS_TYPE":0,"CLASSIFICATION_TYPE":"U","NORAD_CAT_ID":62825,"ELEMENT_SET_NO":999,"REV_AT_EPOCH":2886,"BSTAR":0.00049745,"MEAN_MOTION_DOT":0.00014404,"MEAN_MOTION_DDOT":0},{"OBJECT_NAME":"STARLINK-32704","OBJECT_ID":"2025-018W","EPOCH":"2025-07-28T11:52:19.334208","MEAN_MOTION":15.29350201,"ECCENTRICITY":7.73e-5,"INCLINATION":53.159,"RA_OF_ASC_NODE":270.9411,"ARG_OF_PERICENTER":65.2446,"MEAN_ANOMALY":294.8635,"EPHEMERIS_TYPE":0,"CLASSIFICATION_TYPE":"U","NORAD_CAT_ID":62826,"ELEMENT_SET_NO":999,"REV_AT_EPOCH":2884,"BSTAR":0.00058268,"MEAN_MOTION_DOT":0.00016492,"MEAN_MOTION_DDOT":0},{"OBJECT_NAME":"STARLINK-32838","OBJECT_ID":"2025-018X","EPOCH":"2025-07-28T18:48:32.226048","MEAN_MOTION":15.39633955,"ECCENTRICITY":0.0001315,"INCLINATION":53.1563,"RA_OF_ASC_NODE":233.2922,"ARG_OF_PERICENTER":87.1733,"MEAN_ANOMALY":272.9422,"EPHEMERIS_TYPE":0,"CLASSIFICATION_TYPE":"U","NORAD_CAT_ID":62827,"ELEMENT_SET_NO":999,"REV_AT_EPOCH":3009,"BSTAR":0.00076151,"MEAN_MOTION_DOT":0.00030195,"MEAN_MOTION_DDOT":0},{"OBJECT_NAME":"STARLINK-32727","OBJECT_ID":"2025-018Y","EPOCH":"2025-07-28T10:25:08.126112","MEAN_MOTION":15.30196085,"ECCENTRICITY":0.0001245,"INCLINATION":53.1579,"RA_OF_ASC_NODE":268.417,"ARG_OF_PERICENTER":78.8381,"MEAN_ANOMALY":281.2759,"EPHEMERIS_TYPE":0,"CLASSIFICATION_TYPE":"U","NORAD_CAT_ID":62828,"ELEMENT_SET_NO":999,"REV_AT_EPOCH":2982,"BSTAR":0.00072991,"MEAN_MOTION_DOT":0.00021318,"MEAN_MOTION_DDOT":0},{"OBJECT_NAME":"STARLINK-11548 [DTC]","OBJECT_ID":"2025-019A","EPOCH":"2025-07-28T10:18:37.503936","MEAN_MOTION":15.70930247,"ECCENTRICITY":0.0003307,"INCLINATION":42.9991,"RA_OF_ASC_NODE":217.4655,"ARG_OF_PERICENTER":254.451,"MEAN_ANOMALY":105.5993,"EPHEMERIS_TYPE":0,"CLASSIFICATION_TYPE":"U","NORAD_CAT_ID":62829,"ELEMENT_SET_NO":999,"REV_AT_EPOCH":2861,"BSTAR":0.0013757,"MEAN_MOTION_DOT":0.00180671,"MEAN_MOTION_DDOT":0},{"OBJECT_NAME":"STARLINK-11480 [DTC]","OBJECT_ID":"2025-019B","EPOCH":"2025-07-28T09:17:39.142176","MEAN_MOTION":15.7086192,"ECCENTRICITY":0.0001228,"INCLINATION":42.999,"RA_OF_ASC_NODE":218.0192,"ARG_OF_PERICENTER":278.8735,"MEAN_ANOMALY":81.1994,"EPHEMERIS_TYPE":0,"CLASSIFICATION_TYPE":"U","NORAD_CAT_ID":62830,"ELEMENT_SET_NO":999,"REV_AT_EPOCH":2860,"BSTAR":0.00065031,"MEAN_MOTION_DOT":0.00083918,"MEAN_MOTION_DDOT":0},{"OBJECT_NAME":"STARLINK-11559 [DTC]","OBJECT_ID":"2025-019C","EPOCH":"2025-07-28T17:41:20.408928","MEAN_MOTION":15.70866637,"ECCENTRICITY":6.98e-5,"INCLINATION":42.9977,"RA_OF_ASC_NODE":216.3598,"ARG_OF_PERICENTER":53.3699,"MEAN_ANOMALY":306.7233,"EPHEMERIS_TYPE":0,"CLASSIFICATION_TYPE":"U","NORAD_CAT_ID":62831,"ELEMENT_SET_NO":999,"REV_AT_EPOCH":2959,"BSTAR":0.0012117,"MEAN_MOTION_DOT":0.00158199,"MEAN_MOTION_DDOT":0},{"OBJECT_NAME":"STARLINK-11549 [DTC]","OBJECT_ID":"2025-019D","EPOCH":"2025-07-28T17:18:23.984352","MEAN_MOTION":15.70882391,"ECCENTRICITY":6.12e-5,"INCLINATION":42.9999,"RA_OF_ASC_NODE":216.2296,"ARG_OF_PERICENTER":35.1356,"MEAN_ANOMALY":324.9552,"EPHEMERIS_TYPE":0,"CLASSIFICATION_TYPE":"U","NORAD_CAT_ID":62832,"ELEMENT_SET_NO":999,"REV_AT_EPOCH":2959,"BSTAR":0.0013998,"MEAN_MOTION_DOT":0.00183512,"MEAN_MOTION_DDOT":0},{"OBJECT_NAME":"STARLINK-11554 [DTC]","OBJECT_ID":"2025-019E","EPOCH":"2025-07-28T09:48:13.463424","MEAN_MOTION":15.70839991,"ECCENTRICITY":0.0001851,"INCLINATION":43.0018,"RA_OF_ASC_NODE":218.19,"ARG_OF_PERICENTER":280.5539,"MEAN_ANOMALY":79.512,"EPHEMERIS_TYPE":0,"CLASSIFICATION_TYPE":"U","NORAD_CAT_ID":62833,"ELEMENT_SET_NO":999,"REV_AT_EPOCH":2860,"BSTAR":0.0012869,"MEAN_MOTION_DOT":0.0016806,"MEAN_MOTION_DDOT":0},{"OBJECT_NAME":"STARLINK-11520 [DTC]","OBJECT_ID":"2025-019F","EPOCH":"2025-07-28T11:57:50.220288","MEAN_MOTION":15.70896986,"ECCENTRICITY":0.0001729,"INCLINATION":43.0006,"RA_OF_ASC_NODE":217.1237,"ARG_OF_PERICENTER":292.3981,"MEAN_ANOMALY":67.6703,"EPHEMERIS_TYPE":0,"CLASSIFICATION_TYPE":"U","NORAD_CAT_ID":62834,"ELEMENT_SET_NO":999,"REV_AT_EPOCH":2863,"BSTAR":0.0013526,"MEAN_MOTION_DOT":0.00177284,"MEAN_MOTION_DDOT":0},{"OBJECT_NAME":"STARLINK-11546 [DTC]","OBJECT_ID":"2025-019G","EPOCH":"2025-07-28T17:48:57.689568","MEAN_MOTION":15.70878569,"ECCENTRICITY":0.0002911,"INCLINATION":43.0028,"RA_OF_ASC_NODE":216.404,"ARG_OF_PERICENTER":271.1589,"MEAN_ANOMALY":88.8946,"EPHEMERIS_TYPE":0,"CLASSIFICATION_TYPE":"U","NORAD_CAT_ID":62835,"ELEMENT_SET_NO":999,"REV_AT_EPOCH":2959,"BSTAR":0.0012089,"MEAN_MOTION_DOT":0.00157922,"MEAN_MOTION_DDOT":0},{"OBJECT_NAME":"STARLINK-11533 [DTC]","OBJECT_ID":"2025-019H","EPOCH":"2025-07-28T01:47:29.845536","MEAN_MOTION":15.70847714,"ECCENTRICITY":0.0001885,"INCLINATION":43.0031,"RA_OF_ASC_NODE":219.9759,"ARG_OF_PERICENTER":274.0377,"MEAN_ANOMALY":86.0275,"EPHEMERIS_TYPE":0,"CLASSIFICATION_TYPE":"U","NORAD_CAT_ID":62836,"ELEMENT_SET_NO":999,"REV_AT_EPOCH":2855,"BSTAR":0.0012091,"MEAN_MOTION_DOT":0.00157726,"MEAN_MOTION_DDOT":0},{"OBJECT_NAME":"STARLINK-11557 [DTC]","OBJECT_ID":"2025-019J","EPOCH":"2025-07-28T09:02:21.206976","MEAN_MOTION":15.70970146,"ECCENTRICITY":0.000362,"INCLINATION":43.0009,"RA_OF_ASC_NODE":217.9307,"ARG_OF_PERICENTER":244.8472,"MEAN_ANOMALY":115.202,"EPHEMERIS_TYPE":0,"CLASSIFICATION_TYPE":"U","NORAD_CAT_ID":62837,"ELEMENT_SET_NO":999,"REV_AT_EPOCH":2860,"BSTAR":0.0012929,"MEAN_MOTION_DOT":0.0016984,"MEAN_MOTION_DDOT":0}]
