STARLINK-32842          
1 62822U 25018S   25209.49374687  .00014202  00000+0  49064-3 0  9996
2 62822  53.1579 270.9203 0001296  69.0792 291.0347 15.30203922 28852
STARLINK-32823          
1 62823U 25018T   25209.86874956  .00023507  00000+0  80315-3 0  9994
2 62823  53.1560 268.9921 0001346  81.1397 278.9756 15.30205424 29813
STARLINK-32852          
1 62824U 25018U   25209.44108443  .00038243  00000+0  12951-2 0  9993
2 62824  53.1572 271.3027 0000663  98.6792 261.4284 15.30240243 28848
STARLINK-32825          
1 62825U 25018V   25209.39096457  .00014404  00000+0  49745-3 0  9994
2 62825  53.1557 268.8549 0000837  72.0549 288.0543 15.30204150 28863
STARLINK-32704          
1 62826U 25018W   25209.49466822  .00016492  00000+0  58268-3 0  9992
2 62826  53.1590 270.9411 0000773  65.2446 294.8635 15.29350201 28844
STARLINK-32838          
1 62827U 25018X   25209.78370632  .00030195  00000+0  76151-3 0  9995
2 62827  53.1563 233.2922 0001315  87.1733 272.9422 15.39633955 30091
STARLINK-32727          
1 62828U 25018Y   25209.43412183  .00021318  00000+0  72991-3 0  9991
2 62828  53.1579 268.4170 0001245  78.8381 281.2759 15.30196085 29826
STARLINK-11548 [DTC]    
1 62829U 25019A   25209.42960074  .00180671  00000+0  13757-2 0  9991
2 62829  42.9991 217.4655 0003307 254.4510 105.5993 15.70930247 28614
STARLINK-11480 [DTC]    
1 62830U 25019B   25209.38725859  .00083918  00000+0  65031-3 0  9997
2 62830  42.9990 218.0192 0001228 278.8735  81.1994 15.70861920 28607
STARLINK-11559 [DTC]    
1 62831U 25019C   25209.73704177  .00158199  00000+0  12117-2 0  9997
2 62831  42.9977 216.3598 0000698  53.3699 306.7233 15.70866637 29590
STARLINK-11549 [DTC]    
1 62832U 25019D   25209.72111093  .00183512  00000+0  13998-2 0  9991
2 62832  42.9999 216.2296 0000612  35.1356 324.9552 15.70882391 29594
STARLINK-11554 [DTC]    
1 62833U 25019E   25209.40848916  .00168060  00000+0  12869-2 0  9995
2 62833  43.0018 218.1900 0001851 280.5539  79.5120 15.70839991 28600
STARLINK-11520 [DTC]    
1 62834U 25019F   25209.49849792  .00177284  00000+0  13526-2 0  9997
2 62834  43.0006 217.1237 0001729 292.3981  67.6703 15.70896986 28631
STARLINK-11546 [DTC]    
1 62835U 25019G   25209.74233437  .00157922  00000+0  12089-2 0  9999
2 62835  43.0028 216.4040 0002911 271.1589  88.8946 15.70878569 29590
STARLINK-11533 [DTC]    
1 62836U 25019H   25209.07465099  .00157726  00000+0  12091-2 0  9992
2 62836  43.0031 219.9759 0001885 274.0377  86.0275 15.70847714 28554
STARLINK-11557 [DTC]    
1 62837U 25019J   25209.37663434  .00169840  00000+0  12929-2 0  9999
2 62837  43.0009 217.9307 0003620 244.8472 115.2020 15.70970146 28602
